[{"OBJECT_NAME":"STARLINK-31267","OBJECT_ID":"2024-068P","EPOCH":"2026-03-08T06:22:55.288416","MEAN_MOTION":15.27568172,"ECCENTRICITY":0.00011376,"INCLINATION":43.0021,"RA_OF_ASC_NODE":38.3404,"ARG_OF_PERICENTER":277.3139,"MEAN_ANOMALY":82.7584,"EPHEMERIS_TYPE":0,"CLASSIFICATION_TYPE":"U","NORAD_CAT_ID":59468,"ELEMENT_SET_NO":999,"REV_AT_EPOCH":10835,"BSTAR":-1.8480277e-5,"MEAN_MOTION_DOT":-7.7e-6,"MEAN_MOTION_DDOT":0},{"OBJECT_NAME":"FLOCK 4G-15","OBJECT_ID":"2025-009BX","EPOCH":"2026-03-09T17:13:37.807680","MEAN_MOTION":15.27266411,"ECCENTRICITY":0.00036988,"INCLINATION":97.4054,"RA_OF_ASC_NODE":151.1927,"ARG_OF_PERICENTER":316.8208,"MEAN_ANOMALY":43.274,"EPHEMERIS_TYPE":0,"CLASSIFICATION_TYPE":"U","NORAD_CAT_ID":62678,"ELEMENT_SET_NO":999,"REV_AT_EPOCH":12135,"BSTAR":0.00047574812,"MEAN_MOTION_DOT":0.00012647,"MEAN_MOTION_DDOT":0}]
